GLOBALSTAR M068         
1 32266U 07048D   25106.51467487 -.00000075  00000+0  15871-3 0  9991
2 32266  51.9860 130.2547 0000900   8.0170 148.0365 12.62821031809760
GLOBALSTAR M079         
1 37188U 10054A   25106.56177998 -.00000073  00000+0  16923-3 0  9997
2 37188  52.0057 327.3847 0000970 105.4500 270.6926 12.62273228668673
GLOBALSTAR M074         
1 37189U 10054B   25106.58891191 -.00000081  00000+0  12630-3 0  9998
2 37189  52.0033 326.6357 0000637  93.1354 284.9678 12.62274029669286
GLOBALSTAR M076         
1 37190U 10054C   25106.33179878 -.00000070  00000+0  18914-3 0  9993
2 37190  52.0047 327.5805 0000709 111.9730  59.4627 12.62261060668962
GLOBALSTAR M077         
1 37191U 10054D   25106.52176289 -.00000082  00000+0  12395-3 0  9998
2 37191  52.0070 283.8428 0000805 107.7892 265.7928 12.62273436669364
GLOBALSTAR M075         
1 37192U 10054E   25106.50344694 -.00000073  00000+0  17065-3 0  9993
2 37192  51.9977   9.3487 0000639  78.2269  92.8106 12.62263540668057
GLOBALSTAR M073         
1 37193U 10054F   25106.39260932 -.00000090  00000+0  77307-4 0  9998
2 37193  52.0056 283.4614 0000799 112.2896 273.2705 12.62270504670036
GLOBALSTAR M083         
1 37739U 11033A   25106.57675674 -.00000073  00000+0  17082-3 0  9999
2 37739  51.9852 231.7138 0000812 111.0854 332.5140 12.62262864639079
GLOBALSTAR M088         
1 37740U 11033B   25106.56806953 -.00000075  00000+0  16179-3 0  9994
2 37740  51.9709 137.2823 0000325 103.5587  61.4803 12.62265666634613
GLOBALSTAR M091         
1 37741U 11033C   25105.99764243 -.00000110  00000+0 -34724-4 0  9994
2 37741  51.9978 102.4636 0000547  79.7204 311.1268 12.62267041635333
GLOBALSTAR M085         
1 37742U 11033D   25106.56952811 -.00000098  00000+0  32872-4 0  9995
2 37742  51.9877  51.8139 0000686  74.9525  96.0955 12.62267301635919
GLOBALSTAR M081         
1 37743U 11033E   25106.18551850 -.00000107  00000+0 -20354-4 0  9996
2 37743  51.9968  55.7321 0000582  91.1708  13.8146 12.62262696636019
GLOBALSTAR M089         
1 37744U 11033F   25106.47707378 -.00000075  00000+0  15795-3 0  9992
2 37744  51.9962   9.0857 0000438  80.5042  90.5568 12.62268698636897
GLOBALSTAR M084         
1 38040U 11080A   25106.61398816 -.00000080  00000+0  13076-3 0  9999
2 38040  52.0003 235.9245 0000448 140.8418 232.1732 12.62264918614898
GLOBALSTAR M080         
1 38041U 11080B   25106.52233473 -.00000080  00000+0  12994-3 0  9995
2 38041  52.0055 237.7878 0000699 156.3264 280.6783 12.62291883615006
GLOBALSTAR M082         
1 38042U 11080C   25106.62935700 -.00000051  00000+0  29410-3 0  9998
2 38042  52.0065 192.9025 0000713  90.7098  52.5073 12.62265379615725
GLOBALSTAR M092         
1 38043U 11080D   25106.50004000 -.00000063  00000+0  22673-3 0  9993
2 38043  52.0082 283.6695 0000719 100.4928 295.2356 12.62263077614163
GLOBALSTAR M090         
1 38044U 11080E   25106.57546161 -.00000058  00000+0  25698-3 0  9994
2 38044  51.9874 186.9543 0000586 112.2492  25.7108 12.62269273615837
GLOBALSTAR M086         
1 38045U 11080F   25106.60243176 -.00000068  00000+0  20063-3 0  9991
2 38045  51.9887 187.4183 0001212 164.7698 336.2220 12.62269388615781
GLOBALSTAR M097         
1 39072U 13005A   25106.28126239 -.00000118  00000+0 -80460-4 0  9990
2 39072  52.0025 102.8780 0000454 104.7481 255.3436 12.62271738562999
GLOBALSTAR M093         
1 39073U 13005B   25106.17541535 -.00000112  00000+0 -46386-4 0  9992
2 39073  51.9793  96.6003 0000430  96.9660 263.1256 12.62263763563057
GLOBALSTAR M094         
1 39074U 13005C   25106.41312241 -.00000089  00000+0  81402-4 0  9990
2 39074  51.9988  10.1990 0000907  93.9506 266.1464 12.62269666564575
GLOBALSTAR M096         
1 39075U 13005D   25106.58475298 -.00000103  00000+0  51673-5 0  9996
2 39075  52.0082  58.1409 0000717  83.2650 276.8298 12.62270174563513
GLOBALSTAR M078         
1 39076U 13005E   25106.55793993 -.00000091  00000+0  70322-4 0  9996
2 39076  51.9851 142.8170 0001098  58.5123 301.5850 12.62261476562137
GLOBALSTAR M095         
1 39077U 13005F   25106.34700144 -.00000080  00000+0  13127-3 0  9997
2 39077  51.9777 140.6881 0000759  88.1888 271.9065 12.62269215561967
GLOBALSTAR M087         
1 52888U 22064A   25106.61518281 -.00000093  00000+0  62453-4 0  9997
2 52888  51.9788 281.2745 0000939 100.0516 260.0457 12.62270924137262
